0 SL-16 DEB
1 22337U 92093AA  13281.87871021  .00000018  00000-0  50065-4 0    67
2 22337 071.2881 072.4404 0150380 325.5148 143.0777 13.83973476 48554
0 SL-16 DEB
1 22337U 92093AA  13284.11916909 -.00000003  00000-0  32874-4 0    76
2 22337 071.2886 068.0355 0150468 322.2064 145.6953 13.83974069 48860
0 SL-16 DEB
1 22337U 92093AA  13286.49480326 -.00000021  00000-0  18199-4 0    83
2 22337 071.2892 063.3647 0150534 318.6969 101.8010 13.83974538 49192
0 SL-16 DEB
1 22337U 92093AA  13288.51980058  .00000015  00000-0  47859-4 0    93
2 22337 071.2896 059.3835 0150613 315.6959 110.9446 13.83974567 49471
0 SL-16 DEB
1 22337U 92093AA  13290.76824822  .00000048  00000-0  74489-4 0   106
2 22337 071.2898 054.9633 0150692 312.3742 153.3753 13.83974599 49782
0 SL-16 DEB
1 22337U 92093AA  13292.79318243  .00000055  00000-0  80909-4 0   119
2 22337 071.2899 050.9825 0150765 309.3880 162.1905 13.83974849 50060
0 SL-16 DEB
1 22337U 92093AA  13294.82445613  .00000044  00000-0  71689-4 0   121
2 22337 071.2899 046.9894 0150800 306.3893 202.5962 13.83975335 50346
